ONEWEB-0032             
1 45141U 20008L   23325.79721511  .00000391  00000+0  10838-2 0  9997
2 45141  87.8927 222.6700 0001462  69.8545 290.2740 13.10371888185409
ONEWEB-0033             
1 45142U 20008M   23325.77122943  .00000174  00000+0  46249-3 0  9995
2 45142  87.8934 222.6827 0001421  81.0376 279.0913 13.10375694185317
ONEWEB-0035             
1 45143U 20008N   23325.80365256  .00000030  00000+0  50442-4 0  9998
2 45143  87.8924 222.6481 0001530  74.6344 285.4952 13.10374669185042
ONEWEB-0036             
1 45144U 20008P   23325.79398698  .00000528  00000+0  14758-2 0  9993
2 45144  87.8929 222.6128 0001748  69.4049 290.7266 13.10366384185470
ONEWEB-0038             
1 45145U 20008Q   23325.70575516 -.00000536  00000+0 -15484-2 0  9999
2 45145  87.9004 207.5306 0001298  41.3056 318.8170 13.11415514187326
ONEWEB-0039             
1 45146U 20008R   23325.77448402  .00000387  00000+0  10718-2 0  9997
2 45146  87.8927 222.6335 0001965  60.2231 299.9091 13.10375334185262
ONEWEB-0040             
1 45147U 20008S   23325.76797930  .00000033  00000+0  58677-4 0  9996
2 45147  87.8934 222.6228 0001613  68.9384 291.1915 13.10376059184966
ONEWEB-0041             
1 45148U 20008T   23325.72751758  .00000072  00000+0  93759-4 0  9994
2 45148  87.9446 198.8411 0018943  45.8226 314.4476 13.48426506191577
